#cP2024  2  4 12  0  0.00000000     577 d+D   IGS20 EXT AIUB
## 2300  43200.00000000   300.00000000 60344 0.5000000000000
+   77   G01G02G03G05G06G07G08G09G10G11G12G13G14G15G16G17G18
+        G19G20G21G22G23G24G25G26G27G28G29G30G31G32R01R02R03
+        R04R05R07R08R09R11R12R13R14R15R16R17R18R19R20R21R22
+        R24E02E03E04E05E07E08E09E10E11E12E13E14E15E18E19E21
+        E24E25E26E27E30E31E33E34E36  0  0  0  0  0  0  0  0
++         6  7  6  7  6  7  5  6  5  7  7  7  5  7  7  7  7
++         7  7  7  7  6  6  5  6  6  5  7  6  7  6  9  8  8
++         8  8  8  8  7  6  7  7  6  5  7  9  7  9  9  8  7
++         8  6  8  8  7  8  8  8  6  6  7  7  6  7  7  8  6
++         6  6  7  5  6  6  7  7  6  0  0  0  0  0  0  0  0
%c M  cc GPS ccc cccc cccc cccc cccc ccccc ccccc ccccc ccccc
%c cc cc ccc ccc cccc cccc cccc cccc ccccc ccccc ccccc ccccc
%f  1.2500000  1.025000000  0.00000000000  0.000000000000000
%f  0.0000000  0.000000000  0.00000000000  0.000000000000000
%i    0    0    0    0      0      0      0      0         0
%i    0    0    0    0      0      0      0      0         0
/* Center for Orbit Determination in Europe (CODE)          
/* Ultra-rapid GRE orbits starting year-day 24035 12 hour   
/* Observed/predicted: 24/24 hours (data used up to 036L)   
/* PCV:IGS20      OL/AL:FES2014b NONE     YN ORB:CoN CLK:BRD
*  2024  2  5 21 35  0.00000000
PG01  12284.450164 -11898.603314  19887.219847    168.431584               P   P
PG02  14855.686152  -3781.593321  22182.992730   -489.950848               P   P
PG03  23198.140568 -11230.568590   6018.232537    174.349012               P   P
PG05 -20939.703506   1900.698227 -16452.914406   -160.701805               P   P
PG06  -6114.147406 -24941.619920  -6482.433385    418.323187               P   P
PG07   6204.618056 -22695.384750 -11357.375000    -54.950281               P   P
PG08  25030.715541   4287.991499   8393.985065   -165.619777               P   P
PG09  10395.228523 -11896.401758 -21440.968424     82.471181               P   P
PG10  -2174.676721  17655.132872  19818.804563    -72.158640               P   P
PG11 -11861.426941 -17402.063423 -16187.577974   -565.795295               P   P
PG12 -23952.402450   9494.489054   6012.088900   -475.106270               P   P
PG13 -22806.659081 -13759.056616   1358.082912    622.813371               P   P
PG14   6284.749655 -19084.048899  17300.015879    318.038573               P   P
PG15 -25342.098251  -1640.740398   7637.707286    124.683733               P   P
PG16  17620.629923   5579.936191 -19570.687475   -368.974896               P   P
PG17  -3000.030533 -17388.297560  20231.577392    717.869853               P   P
PG18  -5769.898167  23447.644875 -10833.942732   -549.060822               P   P
PG19 -12656.094685 -18800.268822  13950.146029    436.611129               P   P
PG20 -12312.809340  -9363.556615 -21520.905125    388.595975               P   P
PG21  15889.820966   2901.323418  21704.661051    135.963283               P   P
PG22   -928.743302 -16538.279678  21249.863949     36.040668               P   P
PG23 -13876.117069  19626.136062  11111.982928    150.058698               P   P
PG24 -15576.096461   1454.291637  21067.643079   -426.822299               P   P
PG25 -19518.782549  17452.270223  -3800.237031    487.674174               P   P
PG26   9150.256948  13049.591888 -21379.002881    193.245999               P   P
PG27  23006.609770  13329.795497  -3596.561182     -1.415196               P   P
PG28   5617.195824  25715.928830  -3585.245613   -121.437862               P   P
PG29 -12599.249974   9601.585418 -21384.010827   -607.511033               P   P
PG30   -923.761278 -26332.786618  -1717.848462   -436.343168               P   P
PG31  10344.393049  20820.142702 -12672.992875   -227.666657               P   P
PG32   7788.375803  17719.034398  18477.635355   -609.956822               P   P
PR01  13637.876018   9511.758363  19345.520279     76.393713               P   P
PR02  24785.336765   3793.072987   4928.425322    -22.434854               P   P
PR03  21899.339023  -4648.613524 -12234.471701     93.994263               P   P
PR04   7120.476831  -9946.501564 -22353.486369    222.187587               P   P
PR05 -11432.886228 -10166.602112 -20387.139890    126.476897               P   P
PR07 -21267.016881   5076.695045  13136.896250     75.147487               P   P
PR08  -6724.565219  10200.864503  22449.316908    -74.285083               P   P
PR09 -12951.060815    335.840547  21999.316838    168.376132               P   P
PR11 -11633.957660  22313.451066  -4218.194255     35.303527               P   P
PR12   1247.242404  15847.824081 -19926.086656     36.402605               P   P
PR13  11533.487120   2115.340752 -22674.869198    -44.050626               P   P
PR14  16461.026637 -15676.858988 -11552.803335     26.009977               P   P
PR15  10984.068621 -22305.456641   5705.021454     82.476065               P   P
PR16  -1032.304599 -15965.190283  19857.709795     23.039058               P   P
PR17   9102.206704  -5473.522485  23203.695879     58.754944               P   P
PR18   -878.110445 -19077.725112  16897.410011    125.883385               P   P
PR19  -9014.083115 -23604.519286   3493.928110   -264.706208               P   P
PR20 -14101.496746 -13463.099741 -16408.881232   -107.864033               P   P
PR21  -8929.794016   5626.111157 -23217.326180    -74.671007               P   P
PR22    814.884044  19897.033853 -15922.942861    106.680294               P   P
PR24  14931.819870  12229.832345  16693.022943    -42.758038               P   P
PE02  21851.744706   1896.610986 -19898.451384    101.014794               P   P
PE03  27299.774364  11115.351749  -2668.652239    -91.883843               P   P
PE04 -22283.383472   4031.184734  19068.981497   -320.499912               P   P
PE05  16331.249991  19570.485118  15054.348213   4717.265152               P   P
PE07   4704.286721 -16460.687098 -24141.671392   -102.235221               P   P
PE08  22672.880688  -3404.597594 -18717.666438   -219.317884               P   P
PE09  -4785.400407  16275.763460  24258.144119   -325.607831               P   P
PE10 -10241.425428  20859.982053 -18335.262557   -599.689166               P   P
PE11  -4293.774692  27648.011266  -9694.076695   3261.260906               P   P
PE12 -14182.919512  11730.870844 -23184.719067   -893.851031               P   P
PE13   4666.734216 -27328.995211  10360.744916    -20.092426               P   P
PE14   9255.262136 -13155.295631  18912.686895 999999.999999               P   P
PE15  14277.850751 -11101.699915  23439.933619    -84.179643               P   P
PE18 -19648.967962  10520.999587 -22208.349957 999999.999999               P   P
PE19 -26741.227678 -12675.260673    510.006400   -671.408344               P   P
PE21  -5858.780679 -16123.871431  24114.332717   -577.535192               P   P
PE24 -14584.084091  21536.486115 -14126.744547   -582.124550               P   P
PE25   5477.448410  16340.982118 -24067.049541      0.483542               P   P
PE26  -7920.491592 -27019.933823  -9112.771315    360.325017               P   P
PE27  14228.834594 -21584.853388  14423.639934   -267.426680               P   P
PE30  25799.811355 -14005.217597  -3892.767507   -883.306127               P   P
PE31 -25677.971442  14255.125224   3647.175787    -15.348135               P   P
PE33 -15263.339337 -11984.239298 -22342.891908      7.132749               P   P
PE34  15402.668344  11344.179644  22588.963630    -93.015528               P   P
PE36   7522.535828  27325.301217   8572.426553   -181.884172               P   P
EOF
